RAPIDEYE 2              
1 33312U 08040A   20113.44384842 -.00001462  00000-0 -12489-3 0  9990
2 33312  97.6960 179.3523 0011518 204.5541 155.4164 14.96072381629495
RAPIDEYE 5              
1 33313U 08040B   20113.14456863  .00000782  00000-0  77803-4 0  9995
2 33313  97.6964 178.0188 0016551  84.0983 276.2331 14.94375958629397
RAPIDEYE 1              
1 33314U 08040C   20113.13790762  .00002105  00000-0  19891-3 0  9997
2 33314  97.7169 179.1699 0027011 201.4166 158.6713 14.94518896629438
RAPIDEYE 3              
1 33315U 08040D   20112.41787654  .00005493  00000-0  47821-3 0  9991
2 33315  97.7003 177.3004 0004159 142.6058 216.2329 14.97325116629292
RAPIDEYE 4              
1 33316U 08040E   20113.74978431  .00000376  00000-0  39099-4 0  9998
2 33316  97.7064 178.6138 0008949 100.5754 259.6582 14.95463130629478
SKYSAT-1                
1 39418U 13066C   20113.80443299 -.00000321  00000-0 -21519-4 0  9997
2 39418  97.6241 194.5295 0022185  28.4307 331.8121 14.98944342350941
FLOCK 1C-10             
1 40023U 14033P   20113.54986040  .00000698  00000-0  78111-4 0  9998
2 40023  97.9363  42.0327 0013775 119.0937 241.1662 14.90056335317367
FLOCK 1C-7              
1 40026U 14033S   20113.85041484  .00000517  00000-0  58329-4 0  9998
2 40026  97.9451  44.8550 0012362 111.7778 248.4756 14.90818445317013
FLOCK 1C-1              
1 40027U 14033T   20113.67935546  .00000715  00000-0  79787-4 0  9991
2 40027  97.9398  42.7890 0013769 115.9751 244.2887 14.90109486316877
FLOCK 1C-2              
1 40029U 14033V   20113.69119134  .00000671  00000-0  75322-4 0  9994
2 40029  97.9382  42.5494 0014965 113.5334 246.7458 14.90072950316898
FLOCK 1C-4              
1 40031U 14033X   20113.57225911  .00000255  00000-0  32662-4 0  9993
2 40031  97.9390  41.9973 0015689 112.9881 247.2993 14.89648279316834
FLOCK 1C-11             
1 40033U 14033Z   20113.85247733  .00000267  00000-0  32756-4 0  9999
2 40033  97.9515  46.7652 0013566 101.2144 259.0600 14.91079013317088
FLOCK 1C-9              
1 40035U 14033AB  20113.84206430  .00000564  00000-0  64061-4 0  9993
2 40035  97.9439  43.6861 0013081 105.4255 254.8408 14.90199810316944
FLOCK 1C-6              
1 40036U 14033AC  20113.85691617  .00000522  00000-0  59542-4 0  9992
2 40036  97.9468  44.3023 0013314 105.9204 254.3482 14.90304771316944
FLOCK 1C-5              
1 40038U 14033AE  20113.54931529  .00000722  00000-0  80165-4 0  9996
2 40038  97.9435  43.4550 0015387 106.7724 253.5182 14.90269651316904
FLOCK 1C-8              
1 40040U 14033AG  20113.87232125  .00000727  00000-0  77046-4 0  9990
2 40040  97.9664  50.5136 0014255  86.3805 273.9043 14.92218275317266
FLOCK 1C-3              
1 40041U 14033AH  20113.87806162  .00000653  00000-0  73789-4 0  9997
2 40041  97.9406  42.8950 0014498 105.4487 254.8333 14.89900420316879
SKYSAT-2                
1 40072U 14037D   20113.90858665  .00000106  00000-0  21129-4 0  9998
2 40072  98.4580 289.1298 0005536 322.3400  37.7422 14.81272114312946
SKYSAT-C1               
1 41601U 16040C   20113.50628758  .00003621  00000-0  10000-3 0  9997
2 41601  97.2301 192.1580 0006188  11.9229 353.3889 15.37688321213110
FLOCK 2P-6              
1 41606U 16040H   20113.44093628  .00001578  00000-0  63512-4 0  9993
2 41606  97.3299 178.1695 0010390  21.8773 338.2907 15.26309611213211
FLOCK 2P-11             
1 41608U 16040K   20113.85036753  .00004036  00000-0  14957-3 0  9996
2 41608  97.3253 179.1961 0009596  16.5317 343.6234 15.28159921213279
FLOCK 2P-2              
1 41609U 16040L   20113.84274817  .00003018  00000-0  11730-3 0  9996
2 41609  97.3295 178.5379 0009973  20.6742 339.4899 15.26774023213194
FLOCK 2P-9              
1 41610U 16040M   20113.77594819  .00001861  00000-0  74640-4 0  9991
2 41610  97.3297 178.2922 0010695  20.2286 339.9374 15.26192255213050
FLOCK 2P-4              
1 41611U 16040N   20113.84923688  .00003638  00000-0  13751-3 0  9999
2 41611  97.3310 179.5472 0010080  27.2669 332.9098 15.27564355213276
FLOCK 2P-10             
1 41612U 16040P   20113.81487706  .00002204  00000-0  87687-4 0  9991
2 41612  97.3344 179.1648 0010689  30.1959 329.9894 15.26280423213231
FLOCK 2P-8              
1 41613U 16040Q   20113.80429754  .00001713  00000-0  68986-4 0  9995
2 41613  97.3337 178.9462 0010833  28.5633 331.6197 15.26168380213228
FLOCK 2P-12             
1 41614U 16040R   20113.83021401  .00001774  00000-0  71369-4 0  9992
2 41614  97.3346 179.2526 0010748  29.9199 330.2652 15.26162395213233
FLOCK 2P-7              
1 41615U 16040S   20113.85488795  .00004072  00000-0  15182-3 0  9992
2 41615  97.3280 179.5184 0009929  27.0805 333.0951 15.27948804213282
FLOCK 2P-5              
1 41616U 16040T   20113.86064750  .00003704  00000-0  14326-3 0  9995
2 41616  97.3327 179.3414 0010241  27.1410 333.0362 15.26786042213224
FLOCK 2P-1              
1 41617U 16040U   20113.81962838  .00003655  00000-0  13836-3 0  9995
2 41617  97.3309 179.6312 0009869  27.7928 332.3837 15.27519295213267
FLOCK 2P-3              
1 41618U 16040V   20113.84954624  .00001380  00000-0  56043-4 0  9994
2 41618  97.3356 179.2530 0010482  28.9581 331.2237 15.26211247213233
SKYSAT-C4               
1 41771U 16058B   20113.84550505  .00001408  00000-0  40263-4 0  9991
2 41771  97.2128 184.9877 0002275 106.4490 253.7005 15.37633147200122
SKYSAT-C5               
1 41772U 16058C   20113.87589047  .00000487  00000-0  23104-4 0  9999
2 41772  97.3620 184.6152 0002139  82.5612  43.6294 15.23779832200070
SKYSAT-C2               
1 41773U 16058D   20113.75858684  .00001476  00000-0  41938-4 0  9997
2 41773  97.2131 185.2072 0002311  84.8851 275.2658 15.37761497200134
SKYSAT-C3               
1 41774U 16058E   20113.83504846  .00001434  00000-0  40860-4 0  9992
2 41774  97.2126 185.2626 0003536 109.5320 250.6308 15.37701544200136
FLOCK 3P-20             
1 41950U 17008C   20113.87150902  .00001662  00000-0  67282-4 0  9998
2 41950  97.3674 182.1043 0010339 125.9604 234.2595 15.26050143177102
FLOCK 3P-8              
1 41951U 17008D   20113.86187491  .00001500  00000-0  60728-4 0  9990
2 41951  97.3674 182.1556 0009576 125.3314 234.8821 15.26206896177101
FLOCK 3P-51             
1 41952U 17008E   20113.83338018  .00001455  00000-0  59031-4 0  9995
2 41952  97.3677 182.2875 0009078 139.9613 220.2297 15.26185600177105
FLOCK 3P-37             
1 41953U 17008F   20113.87432434  .00003433  00000-0  12686-3 0  9999
2 41953  97.3700 184.2567 0008092 138.6996 221.4857 15.28375004177238
FLOCK 3P-19             
1 41955U 17008H   20113.82950925  .00003681  00000-0  14240-3 0  9999
2 41955  97.3663 182.1064 0009967 126.0939 234.1225 15.26795287177021
FLOCK 3P-24             
1 41956U 17008J   20113.84403918  .00001238  00000-0  47654-4 0  9999
2 41956  97.3669 183.6678 0009506 116.0432 244.1787 15.28231730177216
FLOCK 3P-18             
1 41957U 17008K   20113.81965394  .00003602  00000-0  13322-3 0  9999
2 41957  97.3646 183.1581 0009655 119.4661 240.7543 15.28301696177026
FLOCK 3P-22             
1 41958U 17008L   20113.82923068  .00003974  00000-0  14793-3 0  9998
2 41958  97.3690 182.9779 0009568 121.4873 238.7303 15.28024633176981
FLOCK 3P-21             
1 41959U 17008M   20113.83644321  .00003247  00000-0  12376-3 0  9990
2 41959  97.3687 182.7305 0009596 124.6337 235.5808 15.27378146176976
FLOCK 3P-28             
1 41960U 17008N   20113.61125112  .00003183  00000-0  12267-3 0  9998
2 41960  97.3675 182.1927 0009534 123.6529 236.5621 15.27020315177004
FLOCK 3P-26             
1 41961U 17008P   20113.84755904  .00003758  00000-0  14152-3 0  9995
2 41961  97.3667 182.8975 0009475 122.1319 238.0841 15.27677957176999
FLOCK 3P-17             
1 41962U 17008Q   20113.83377142  .00003787  00000-0  14158-3 0  9997
2 41962  97.3676 183.2142 0009048 122.5815 237.6300 15.27921825176960
FLOCK 3P-27             
1 41963U 17008R   20113.82918367  .00003211  00000-0  12198-3 0  9991
2 41963  97.3681 182.8036 0009679 122.0581 238.1600 15.27495814176984
FLOCK 3P-25             
1 41964U 17008S   20113.80946097  .00003710  00000-0  13949-3 0  9990
2 41964  97.3648 182.7044 0009554 121.9874 238.2295 15.27736335176966
FLOCK 3P-4              
1 41965U 17008T   20113.80213988  .00001535  00000-0  62073-4 0  9993
2 41965  97.3673 182.0806 0009693 124.6886 235.5267 15.26208318177011
FLOCK 3P-2              
1 41966U 17008U   20113.87058418  .00001398  00000-0  56777-4 0  9997
2 41966  97.3687 182.2077 0009488 122.6620 237.5535 15.26201851176941
FLOCK 3P-1              
1 41967U 17008V   20113.82216811  .00003950  00000-0  14675-3 0  9992
2 41967  97.3675 182.9764 0009329 122.4739 237.7403 15.28094956176991
FLOCK 3P-3              
1 41968U 17008W   20113.82945644  .00003017  00000-0  11767-3 0  9999
2 41968  97.3682 182.1961 0009610 123.6779 236.5377 15.26662461177023
FLOCK 3P-6              
1 41969U 17008X   20113.86312657  .00003810  00000-0  14928-3 0  9999
2 41969  97.3674 182.1960 0009526 124.9297 235.2838 15.26349671176931
FLOCK 3P-7              
1 41970U 17008Y   20113.86981432  .00004123  00000-0  15153-3 0  9993
2 41970  97.3676 183.5161 0009204 122.3303 237.8829 15.28428163177032
FLOCK 3P-5              
1 41971U 17008Z   20113.84211593  .00003238  00000-0  12297-3 0  9998
2 41971  97.3681 182.8539 0009305 124.7555 235.4561 15.27501961176917
FLOCK 3P-12             
1 41972U 17008AA  20113.85732752  .00001437  00000-0  58274-4 0  9990
2 41972  97.3690 182.2354 0009251 126.4817 233.7275 15.26212251177023
FLOCK 3P-9              
1 41973U 17008AB  20113.82838107  .00002929  00000-0  11442-3 0  9991
2 41973  97.3686 182.2927 0009359 124.5224 235.6899 15.26635676177028
FLOCK 3P-10             
1 41974U 17008AC  20113.61356059  .00003408  00000-0  13023-3 0  9990
2 41974  97.3693 182.6156 0008840 124.0971 236.1108 15.27261930176918
